{
  "type": "FeatureCollection",
  "features": [
    {
      "type": "Feature",
      "properties": {
        "norad_id": 32184,
        "name": "FENGYUN 1C DEB",
        "group": "fengyun-1c-debris",
        "lat": -74.24071553767465,
        "lon": -89.6689489753817,
        "alt_km": 460.40171694706805,
        "timestamp": "2025-12-07T22:37:43.365962+00:00",
        "meta_object_name": "FENGYUN 1C DEB",
        "meta_object_id": "1999-025CUE",
        "meta_epoch": "2025-12-07T04:23:42.258336",
        "meta_mean_motion": 15.42732424,
        "meta_eccentricity": 0.00719678,
        "meta_inclination": 98.1195,
        "meta_ra_of_asc_node": 119.8767,
        "meta_arg_of_pericenter": 7.9998,
        "meta_mean_anomaly": 352.2376,
        "meta_ephemeris_type": 0,
        "meta_classification_type": "U",
        "meta_norad_cat_id": 32184,
        "meta_element_set_no": 999,
        "meta_rev_at_epoch": 98318,
        "meta_bstar": 0.0021766459,
        "meta_mean_motion_dot": 0.00105642,
        "meta_mean_motion_ddot": 0,
        "tle_line1": "1 32184U 99025CUE 25341.18312799  .00105642  00000+0  21766-2 0  9999",
        "tle_line2": "2 32184  98.1195 119.8767 0071967   7.9998 352.2376 15.42732424983185"
      },
      "geometry": {
        "type": "Point",
        "coordinates": [
          -89.6689489753817,
          -74.24071553767465
        ]
      }
    },
    {
      "type": "Feature",
      "properties": {
        "norad_id": 32185,
        "name": "FENGYUN 1C DEB",
        "group": "fengyun-1c-debris",
        "lat": 79.20052109844129,
        "lon": 62.751363667860325,
        "alt_km": 502.15590202298426,
        "timestamp": "2025-12-07T22:37:43.365973+00:00",
        "meta_object_name": "FENGYUN 1C DEB",
        "meta_object_id": "1999-025CUF",
        "meta_epoch": "2025-12-05T12:40:52.737024",
        "meta_mean_motion": 15.02460324,
        "meta_eccentricity": 0.01646589,
        "meta_inclination": 98.9032,
        "meta_ra_of_asc_node": 184.713,
        "meta_arg_of_pericenter": 38.5162,
        "meta_mean_anomaly": 322.7674,
        "meta_ephemeris_type": 0,
        "meta_classification_type": "U",
        "meta_norad_cat_id": 32185,
        "meta_element_set_no": 999,
        "meta_rev_at_epoch": 94907,
        "meta_bstar": 0.0039274491,
        "meta_mean_motion_dot": 0.00070509,
        "meta_mean_motion_ddot": 0,
        "tle_line1": "1 32185U 99025CUF 25339.52838816  .00070509  00000+0  39274-2 0  9994",
        "tle_line2": "2 32185  98.9032 184.7130 0164658  38.5162 322.7674 15.02460324949078"
      },
      "geometry": {
        "type": "Point",
        "coordinates": [
          62.751363667860325,
          79.20052109844129
        ]
      }
    },
    {
      "type": "Feature",
      "properties": {
        "norad_id": 32186,
        "name": "FENGYUN 1C DEB",
        "group": "fengyun-1c-debris",
        "lat": 44.22784215033742,
        "lon": 22.886318735076937,
        "alt_km": 1169.7673959507429,
        "timestamp": "2025-12-07T22:37:43.365984+00:00",
        "meta_object_name": "FENGYUN 1C DEB",
        "meta_object_id": "1999-025CUG",
        "meta_epoch": "2025-12-06T09:51:43.692768",
        "meta_mean_motion": 13.76487704,
        "meta_eccentricity": 0.02744906,
        "meta_inclination": 99.6094,
        "meta_ra_of_asc_node": 30.8301,
        "meta_arg_of_pericenter": 217.1306,
        "meta_mean_anomaly": 161.3028,
        "meta_ephemeris_type": 0,
        "meta_classification_type": "U",
        "meta_norad_cat_id": 32186,
        "meta_element_set_no": 999,
        "meta_rev_at_epoch": 62523,
        "meta_bstar": 0.0017299951,
        "meta_mean_motion_dot": 2.187e-05,
        "meta_mean_motion_ddot": 0,
        "tle_line1": "1 32186U 99025CUG 25340.41092237  .00002187  00000+0  17300-2 0  9997",
        "tle_line2": "2 32186  99.6094  30.8301 0274490 217.1306 161.3028 13.76487704625236"
      },
      "geometry": {
        "type": "Point",
        "coordinates": [
          22.886318735076937,
          44.22784215033742
        ]
      }
    },
    {
      "type": "Feature",
      "properties": {
        "norad_id": 32187,
        "name": "FENGYUN 1C DEB",
        "group": "fengyun-1c-debris",
        "lat": -56.375860911933145,
        "lon": 75.70266015842367,
        "alt_km": 1253.3814076173912,
        "timestamp": "2025-12-07T22:37:43.365994+00:00",
        "meta_object_name": "FENGYUN 1C DEB",
        "meta_object_id": "1999-025CUH",
        "meta_epoch": "2025-11-14T01:13:51.155328",
        "meta_mean_motion": 13.50459969,
        "meta_eccentricity": 0.02935721,
        "meta_inclination": 99.509,
        "meta_ra_of_asc_node": 38.2489,
        "meta_arg_of_pericenter": 217.6555,
        "meta_mean_anomaly": 268.1397,
        "meta_ephemeris_type": 0,
        "meta_classification_type": "U",
        "meta_norad_cat_id": 32187,
        "meta_element_set_no": 999,
        "meta_rev_at_epoch": 65871,
        "meta_bstar": 0.0010895496,
        "meta_mean_motion_dot": 8.7e-06,
        "meta_mean_motion_ddot": 0,
        "tle_line1": "1 32187U 99025CUH 25318.05128652  .00000870  00000+0  10895-2 0  9993",
        "tle_line2": "2 32187  99.5090  38.2489 0293572 217.6555 268.1397 13.50459969658712"
      },
      "geometry": {
        "type": "Point",
        "coordinates": [
          75.70266015842367,
          -56.375860911933145
        ]
      }
    },
    {
      "type": "Feature",
      "properties": {
        "norad_id": 32191,
        "name": "FENGYUN 1C DEB",
        "group": "fengyun-1c-debris",
        "lat": -22.86108966833651,
        "lon": -145.62186047283166,
        "alt_km": 746.1989464124435,
        "timestamp": "2025-12-07T22:37:43.366005+00:00",
        "meta_object_name": "FENGYUN 1C DEB",
        "meta_object_id": "1999-025CUM",
        "meta_epoch": "2025-12-04T09:25:35.043744",
        "meta_mean_motion": 14.25105987,
        "meta_eccentricity": 0.0093524,
        "meta_inclination": 98.7083,
        "meta_ra_of_asc_node": 34.5602,
        "meta_arg_of_pericenter": 210.5327,
        "meta_mean_anomaly": 149.0388,
        "meta_ephemeris_type": 0,
        "meta_classification_type": "U",
        "meta_norad_cat_id": 32191,
        "meta_element_set_no": 999,
        "meta_rev_at_epoch": 64382,
        "meta_bstar": 0.0033401,
        "meta_mean_motion_dot": 8.164e-05,
        "meta_mean_motion_ddot": 0,
        "tle_line1": "1 32191U 99025CUM 25338.39276671  .00008164  00000+0  33401-2 0  9994",
        "tle_line2": "2 32191  98.7083  34.5602 0093524 210.5327 149.0388 14.25105987643824"
      },
      "geometry": {
        "type": "Point",
        "coordinates": [
          -145.62186047283166,
          -22.86108966833651
        ]
      }
    },
    {
      "type": "Feature",
      "properties": {
        "norad_id": 32192,
        "name": "FENGYUN 1C DEB",
        "group": "fengyun-1c-debris",
        "lat": -3.668385272410186,
        "lon": -146.2370159325178,
        "alt_km": 1091.3104827255584,
        "timestamp": "2025-12-07T22:37:43.366016+00:00",
        "meta_object_name": "FENGYUN 1C DEB",
        "meta_object_id": "1999-025CUN",
        "meta_epoch": "2025-12-04T09:32:10.557888",
        "meta_mean_motion": 13.82503909,
        "meta_eccentricity": 0.0181329,
        "meta_inclination": 98.6531,
        "meta_ra_of_asc_node": 209.9447,
        "meta_arg_of_pericenter": 185.0799,
        "meta_mean_anomaly": 174.8522,
        "meta_ephemeris_type": 0,
        "meta_classification_type": "U",
        "meta_norad_cat_id": 32192,
        "meta_element_set_no": 999,
        "meta_rev_at_epoch": 92597,
        "meta_bstar": 0.00048978,
        "meta_mean_motion_dot": 5.63e-06,
        "meta_mean_motion_ddot": 0,
        "tle_line1": "1 32192U 99025CUN 25338.39734442  .00000563  00000+0  48978-3 0  9991",
        "tle_line2": "2 32192  98.6531 209.9447 0181329 185.0799 174.8522 13.82503909925970"
      },
      "geometry": {
        "type": "Point",
        "coordinates": [
          -146.2370159325178,
          -3.668385272410186
        ]
      }
    },
    {
      "type": "Feature",
      "properties": {
        "norad_id": 32195,
        "name": "FENGYUN 1C DEB",
        "group": "fengyun-1c-debris",
        "lat": 8.902197526118577,
        "lon": 165.87184024855358,
        "alt_km": 906.1499218587223,
        "timestamp": "2025-12-07T22:37:43.366026+00:00",
        "meta_object_name": "FENGYUN 1C DEB",
        "meta_object_id": "1999-025CUR",
        "meta_epoch": "2025-12-04T06:51:46.584576",
        "meta_mean_motion": 14.08440247,
        "meta_eccentricity": 0.0068891,
        "meta_inclination": 98.773,
        "meta_ra_of_asc_node": 340.9294,
        "meta_arg_of_pericenter": 324.3515,
        "meta_mean_anomaly": 35.3064,
        "meta_ephemeris_type": 0,
        "meta_classification_type": "U",
        "meta_norad_cat_id": 32195,
        "meta_element_set_no": 999,
        "meta_rev_at_epoch": 63863,
        "meta_bstar": 0.0010039,
        "meta_mean_motion_dot": 1.715e-05,
        "meta_mean_motion_ddot": 0,
        "tle_line1": "1 32195U 99025CUR 25338.28595584  .00001715  00000+0  10039-2 0  9990",
        "tle_line2": "2 32195  98.7730 340.9294 0068891 324.3515  35.3064 14.08440247638633"
      },
      "geometry": {
        "type": "Point",
        "coordinates": [
          165.87184024855358,
          8.902197526118577
        ]
      }
    }
  ]
}